ORBCOMM FM05            
1 25117U 97084F   24346.90760496  .00002684  00000+0  80830-3 0  9995
2 25117  45.0128 186.4610 0001216  17.3843 342.7050 14.44667903413519
ORBCOMM FM06            
1 25118U 97084G   24346.94646892  .00002768  00000+0  82913-3 0  9990
2 25118  45.0119 186.2483 0000618  72.4275  67.9772 14.44854332414435
ORBCOMM FM07            
1 25119U 97084H   24346.92645328  .00002728  00000+0  81994-3 0  9996
2 25119  45.0116 187.0472 0001810 357.2648   2.8192 14.44720559414429
ORBCOMM FM03            
1 25158U 98007B   24346.83893269  .00002800  00000+0  10434-2 0  9995
2 25158 107.9662 110.9434 0048123 218.5968 141.1727 14.33572407397180
ORBCOMM FM17            
1 25413U 98046A   24346.67662933  .00002062  00000+0  77658-3 0  9998
2 25413  44.9948  62.1020 0002696 301.6443  58.4141 14.34343485376244
ORBCOMM FM19            
1 25415U 98046C   24346.74089544  .00002676  00000+0  93506-3 0  9990
2 25415  44.9951 345.7276 0003111   5.6463 163.9562 14.37339084377220
