<?xml version="1.0" encoding="UTF-8"?>
<ndm xmlns:xsi="http://www.w3.org/2001/XMLSchema-instance" xsi:noNamespaceSchemaLocation="https://sanaregistry.org/r/ndmxml_unqualified/ndmxml-2.0.0-master-2.0.xsd">
<omm id="CCSDS_OMM_VERS" version="2.0">
<header><CREATION_DATE/><ORIGINATOR/></header><body><segment><metadata><OBJECT_NAME>ORBCOMM FM05</OBJECT_NAME><OBJECT_ID>1997-084F</OBJECT_ID><CENTER_NAME>EARTH</CENTER_NAME><REF_FRAME>TEME</REF_FRAME><TIME_SYSTEM>UTC</TIME_SYSTEM><MEAN_ELEMENT_THEORY>SGP4</MEAN_ELEMENT_THEORY></metadata><data><meanElements><EPOCH>2024-12-11T21:46:57.068544</EPOCH><MEAN_MOTION>14.44667903</MEAN_MOTION><ECCENTRICITY>.0001216</ECCENTRICITY><INCLINATION>45.0128</INCLINATION><RA_OF_ASC_NODE>186.4610</RA_OF_ASC_NODE><ARG_OF_PERICENTER>17.3843</ARG_OF_PERICENTER><MEAN_ANOMALY>342.7050</MEAN_ANOMALY></meanElements><tleParameters><EPHEMERIS_TYPE>0</EPHEMERIS_TYPE><CLASSIFICATION_TYPE>U</CLASSIFICATION_TYPE><NORAD_CAT_ID>25117</NORAD_CAT_ID><ELEMENT_SET_NO>999</ELEMENT_SET_NO><REV_AT_EPOCH>41351</REV_AT_EPOCH><BSTAR>.8083E-3</BSTAR><MEAN_MOTION_DOT>.2684E-4</MEAN_MOTION_DOT><MEAN_MOTION_DDOT>0</MEAN_MOTION_DDOT></tleParameters></data></segment></body></omm>
<omm id="CCSDS_OMM_VERS" version="2.0">
<header><CREATION_DATE/><ORIGINATOR/></header><body><segment><metadata><OBJECT_NAME>ORBCOMM FM06</OBJECT_NAME><OBJECT_ID>1997-084G</OBJECT_ID><CENTER_NAME>EARTH</CENTER_NAME><REF_FRAME>TEME</REF_FRAME><TIME_SYSTEM>UTC</TIME_SYSTEM><MEAN_ELEMENT_THEORY>SGP4</MEAN_ELEMENT_THEORY></metadata><data><meanElements><EPOCH>2024-12-11T22:42:54.914688</EPOCH><MEAN_MOTION>14.44854332</MEAN_MOTION><ECCENTRICITY>.0000618</ECCENTRICITY><INCLINATION>45.0119</INCLINATION><RA_OF_ASC_NODE>186.2483</RA_OF_ASC_NODE><ARG_OF_PERICENTER>72.4275</ARG_OF_PERICENTER><MEAN_ANOMALY>67.9772</MEAN_ANOMALY></meanElements><tleParameters><EPHEMERIS_TYPE>0</EPHEMERIS_TYPE><CLASSIFICATION_TYPE>U</CLASSIFICATION_TYPE><NORAD_CAT_ID>25118</NORAD_CAT_ID><ELEMENT_SET_NO>999</ELEMENT_SET_NO><REV_AT_EPOCH>41443</REV_AT_EPOCH><BSTAR>.82913E-3</BSTAR><MEAN_MOTION_DOT>.2768E-4</MEAN_MOTION_DOT><MEAN_MOTION_DDOT>0</MEAN_MOTION_DDOT></tleParameters></data></segment></body></omm>
<omm id="CCSDS_OMM_VERS" version="2.0">
<header><CREATION_DATE/><ORIGINATOR/></header><body><segment><metadata><OBJECT_NAME>ORBCOMM FM07</OBJECT_NAME><OBJECT_ID>1997-084H</OBJECT_ID><CENTER_NAME>EARTH</CENTER_NAME><REF_FRAME>TEME</REF_FRAME><TIME_SYSTEM>UTC</TIME_SYSTEM><MEAN_ELEMENT_THEORY>SGP4</MEAN_ELEMENT_THEORY></metadata><data><meanElements><EPOCH>2024-12-11T22:14:05.563392</EPOCH><MEAN_MOTION>14.44720559</MEAN_MOTION><ECCENTRICITY>.000181</ECCENTRICITY><INCLINATION>45.0116</INCLINATION><RA_OF_ASC_NODE>187.0472</RA_OF_ASC_NODE><ARG_OF_PERICENTER>357.2648</ARG_OF_PERICENTER><MEAN_ANOMALY>2.8192</MEAN_ANOMALY></meanElements><tleParameters><EPHEMERIS_TYPE>0</EPHEMERIS_TYPE><CLASSIFICATION_TYPE>U</CLASSIFICATION_TYPE><NORAD_CAT_ID>25119</NORAD_CAT_ID><ELEMENT_SET_NO>999</ELEMENT_SET_NO><REV_AT_EPOCH>41442</REV_AT_EPOCH><BSTAR>.81994E-3</BSTAR><MEAN_MOTION_DOT>.2728E-4</MEAN_MOTION_DOT><MEAN_MOTION_DDOT>0</MEAN_MOTION_DDOT></tleParameters></data></segment></body></omm>
<omm id="CCSDS_OMM_VERS" version="2.0">
<header><CREATION_DATE/><ORIGINATOR/></header><body><segment><metadata><OBJECT_NAME>ORBCOMM FM03</OBJECT_NAME><OBJECT_ID>1998-007B</OBJECT_ID><CENTER_NAME>EARTH</CENTER_NAME><REF_FRAME>TEME</REF_FRAME><TIME_SYSTEM>UTC</TIME_SYSTEM><MEAN_ELEMENT_THEORY>SGP4</MEAN_ELEMENT_THEORY></metadata><data><meanElements><EPOCH>2024-12-11T20:08:03.784416</EPOCH><MEAN_MOTION>14.33572407</MEAN_MOTION><ECCENTRICITY>.0048123</ECCENTRICITY><INCLINATION>107.9662</INCLINATION><RA_OF_ASC_NODE>110.9434</RA_OF_ASC_NODE><ARG_OF_PERICENTER>218.5968</ARG_OF_PERICENTER><MEAN_ANOMALY>141.1727</MEAN_ANOMALY></meanElements><tleParameters><EPHEMERIS_TYPE>0</EPHEMERIS_TYPE><CLASSIFICATION_TYPE>U</CLASSIFICATION_TYPE><NORAD_CAT_ID>25158</NORAD_CAT_ID><ELEMENT_SET_NO>999</ELEMENT_SET_NO><REV_AT_EPOCH>39718</REV_AT_EPOCH><BSTAR>.10434E-2</BSTAR><MEAN_MOTION_DOT>.28E-4</MEAN_MOTION_DOT><MEAN_MOTION_DDOT>0</MEAN_MOTION_DDOT></tleParameters></data></segment></body></omm>
<omm id="CCSDS_OMM_VERS" version="2.0">
<header><CREATION_DATE/><ORIGINATOR/></header><body><segment><metadata><OBJECT_NAME>ORBCOMM FM17</OBJECT_NAME><OBJECT_ID>1998-046A</OBJECT_ID><CENTER_NAME>EARTH</CENTER_NAME><REF_FRAME>TEME</REF_FRAME><TIME_SYSTEM>UTC</TIME_SYSTEM><MEAN_ELEMENT_THEORY>SGP4</MEAN_ELEMENT_THEORY></metadata><data><meanElements><EPOCH>2024-12-11T16:14:20.774112</EPOCH><MEAN_MOTION>14.34343485</MEAN_MOTION><ECCENTRICITY>.0002696</ECCENTRICITY><INCLINATION>44.9948</INCLINATION><RA_OF_ASC_NODE>62.1020</RA_OF_ASC_NODE><ARG_OF_PERICENTER>301.6443</ARG_OF_PERICENTER><MEAN_ANOMALY>58.4141</MEAN_ANOMALY></meanElements><tleParameters><EPHEMERIS_TYPE>0</EPHEMERIS_TYPE><CLASSIFICATION_TYPE>U</CLASSIFICATION_TYPE><NORAD_CAT_ID>25413</NORAD_CAT_ID><ELEMENT_SET_NO>999</ELEMENT_SET_NO><REV_AT_EPOCH>37624</REV_AT_EPOCH><BSTAR>.77658E-3</BSTAR><MEAN_MOTION_DOT>.2062E-4</MEAN_MOTION_DOT><MEAN_MOTION_DDOT>0</MEAN_MOTION_DDOT></tleParameters></data></segment></body></omm>
<omm id="CCSDS_OMM_VERS" version="2.0">
<header><CREATION_DATE/><ORIGINATOR/></header><body><segment><metadata><OBJECT_NAME>ORBCOMM FM19</OBJECT_NAME><OBJECT_ID>1998-046C</OBJECT_ID><CENTER_NAME>EARTH</CENTER_NAME><REF_FRAME>TEME</REF_FRAME><TIME_SYSTEM>UTC</TIME_SYSTEM><MEAN_ELEMENT_THEORY>SGP4</MEAN_ELEMENT_THEORY></metadata><data><meanElements><EPOCH>2024-12-11T17:46:53.366016</EPOCH><MEAN_MOTION>14.37339084</MEAN_MOTION><ECCENTRICITY>.0003111</ECCENTRICITY><INCLINATION>44.9951</INCLINATION><RA_OF_ASC_NODE>345.7276</RA_OF_ASC_NODE><ARG_OF_PERICENTER>5.6463</ARG_OF_PERICENTER><MEAN_ANOMALY>163.9562</MEAN_ANOMALY></meanElements><tleParameters><EPHEMERIS_TYPE>0</EPHEMERIS_TYPE><CLASSIFICATION_TYPE>U</CLASSIFICATION_TYPE><NORAD_CAT_ID>25415</NORAD_CAT_ID><ELEMENT_SET_NO>999</ELEMENT_SET_NO><REV_AT_EPOCH>37722</REV_AT_EPOCH><BSTAR>.93506E-3</BSTAR><MEAN_MOTION_DOT>.2676E-4</MEAN_MOTION_DOT><MEAN_MOTION_DDOT>0</MEAN_MOTION_DDOT></tleParameters></data></segment></body></omm>

</ndm>
